ISS (ZARYA)
1 25544U 98067A   26105.55408209  .00005244  00000+0  10354-3 0  9997
2 25544  51.6327 250.0746 0006583 315.7730  44.2732 15.48924547562046
SL-16 R/B
1 22803U 93059B   26105.60255557 -.00000063  00000+0 -74168-5 0  9991
2 22803  70.9894 293.2848 0016330 161.1944 198.9786 14.17239351684764
ARIANE 40 R/B
1 22830U 93061H   26105.14987627  .00000115  00000+0  57948-4 0  9995
2 22830  98.4855 173.3062 0011028 170.2248 189.9153 14.32880345699327
COSMOS 2278
1 23087U 94023A   26105.37402422  .00000336  00000+0  20024-3 0  9998
2 23087  71.0510  98.3459 0009800 321.4492  38.5929 14.14379989649994
SL-16 R/B
1 23088U 94023B   26105.40390856 -.00000244  00000+0 -10129-3 0  9995
2 23088  71.0021 353.7856 0005601 254.0809 105.9697 14.15018789651284
SL-16 R/B
1 23343U 94074B   26105.03989602  .00000237  00000+0  38380-4 0  9997
2 23343  97.7054 134.3765 0008094 101.0876 288.7711 14.79448595692627
SL-16 R/B
1 23405U 94077B   26105.51255441  .00000155  00000+0  10350-3 0  9994
2 23405  70.9811 275.0186 0001059 159.4919 200.6247 14.15567216621440
ARIANE 40+ R/B
1 23561U 95021B   26105.43101679  .00000137  00000+0  57453-4 0  9997
2 23561  98.4440 176.4045 0007359  41.2980 329.9009 14.39798335624537
SL-16 R/B
1 23705U 95058B   26105.38000727  .00000279  00000+0  16690-3 0  9997
2 23705  71.0192 103.2242 0010616  58.3866 301.8292 14.15502911573046
SL-16 R/B
1 24298U 96051B   26105.42632432  .00000046  00000+0  51685-4 0  9994
2 24298  70.7583  97.4808 0012644  85.6327 274.6237 14.12425351526834
ORBVIEW 2 (SEASTAR)
1 24883U 97037A   26105.35963422  .00000139  00000+0  64612-4 0  9994
2 24883  98.8628 270.6552 0001474 339.0106  21.1018 14.35520288513733
SL-16 R/B
1 25400U 98043G   26105.56724270  .00000010  00000+0  23304-4 0  9998
2 25400  98.8314  59.2065 0008731 267.7171  92.3009 14.26058174444242
SL-16 R/B
1 25407U 98045B   26105.37290067  .00000068  00000+0  58456-4 0  9997
2 25407  71.0091 104.4298 0008907 316.2646  43.7771 14.16198820432297
CZ-4B R/B
1 25732U 99025C   26105.57377042  .00000011  00000+0  26307-4 0  9996
2 25732  98.6556 148.9687 0036168 237.8019 242.5309 14.18272557393391
OKEAN-O
1 25860U 99039A   26105.15166637  .00000324  00000+0  49220-4 0  9999
2 25860  97.9371 164.6588 0001196 115.1282 245.0055 14.80392097439789
SL-16 R/B
1 25861U 99039B   26105.43496626  .00000235  00000+0  36571-4 0  9991
2 25861  97.9894 164.4623 0015820 134.7181 225.5323 14.81780838442300
DELTA 2 R/B
1 25876U 99041E   26105.39366092  .00000262  00000+0  82541-4 0  9996
2 25876  51.7596 154.6521 0502546  96.6645 269.1722 14.11916721368217
