[{"OBJECT_NAME":"SL-16 R/B","OBJECT_ID":"1993-059B","EPOCH":"2026-04-15T14:27:40.801248","MEAN_MOTION":14.17239351,"ECCENTRICITY":0.00163308,"INCLINATION":70.9894,"RA_OF_ASC_NODE":293.2848,"ARG_OF_PERICENTER":161.1944,"MEAN_ANOMALY":198.9786,"EPHEMERIS_TYPE":0,"CLASSIFICATION_TYPE":"U","NORAD_CAT_ID":22803,"ELEMENT_SET_NO":999,"REV_AT_EPOCH":68476,"BSTAR":-7.416756e-6,"MEAN_MOTION_DOT":-6.3e-7,"MEAN_MOTION_DDOT":0},{"OBJECT_NAME":"ARIANE 40 R/B","OBJECT_ID":"1993-061H","EPOCH":"2026-04-15T03:35:49.309728","MEAN_MOTION":14.32880345,"ECCENTRICITY":0.00110284,"INCLINATION":98.4855,"RA_OF_ASC_NODE":173.3062,"ARG_OF_PERICENTER":170.2248,"MEAN_ANOMALY":189.9153,"EPHEMERIS_TYPE":0,"CLASSIFICATION_TYPE":"U","NORAD_CAT_ID":22830,"ELEMENT_SET_NO":999,"REV_AT_EPOCH":69932,"BSTAR":5.7948355e-5,"MEAN_MOTION_DOT":1.15e-6,"MEAN_MOTION_DDOT":0},{"OBJECT_NAME":"COSMOS 2278","OBJECT_ID":"1994-023A","EPOCH":"2026-04-15T08:58:35.692608","MEAN_MOTION":14.14379989,"ECCENTRICITY":0.00098004,"INCLINATION":71.051,"RA_OF_ASC_NODE":98.3459,"ARG_OF_PERICENTER":321.4492,"MEAN_ANOMALY":38.5929,"EPHEMERIS_TYPE":0,"CLASSIFICATION_TYPE":"U","NORAD_CAT_ID":23087,"ELEMENT_SET_NO":999,"REV_AT_EPOCH":64999,"BSTAR":0.00020024338,"MEAN_MOTION_DOT":3.36e-6,"MEAN_MOTION_DDOT":0},{"OBJECT_NAME":"SL-16 R/B","OBJECT_ID":"1994-023B","EPOCH":"2026-04-15T09:41:37.699584","MEAN_MOTION":14.15018789,"ECCENTRICITY":0.00056017,"INCLINATION":71.0021,"RA_OF_ASC_NODE":353.7856,"ARG_OF_PERICENTER":254.0809,"MEAN_ANOMALY":105.9697,"EPHEMERIS_TYPE":0,"CLASSIFICATION_TYPE":"U","NORAD_CAT_ID":23088,"ELEMENT_SET_NO":999,"REV_AT_EPOCH":65128,"BSTAR":-0.00010129055,"MEAN_MOTION_DOT":-2.44e-6,"MEAN_MOTION_DDOT":0},{"OBJECT_NAME":"SL-16 R/B","OBJECT_ID":"1994-074B","EPOCH":"2026-04-15T00:57:27.016128","MEAN_MOTION":14.79448595,"ECCENTRICITY":0.00080946,"INCLINATION":97.7054,"RA_OF_ASC_NODE":134.3765,"ARG_OF_PERICENTER":101.0876,"MEAN_ANOMALY":288.7711,"EPHEMERIS_TYPE":0,"CLASSIFICATION_TYPE":"U","NORAD_CAT_ID":23343,"ELEMENT_SET_NO":999,"REV_AT_EPOCH":69262,"BSTAR":3.8379678e-5,"MEAN_MOTION_DOT":2.37e-6,"MEAN_MOTION_DDOT":0},{"OBJECT_NAME":"SL-16 R/B","OBJECT_ID":"1994-077B","EPOCH":"2026-04-15T12:18:04.701024","MEAN_MOTION":14.15567216,"ECCENTRICITY":0.0001059,"INCLINATION":70.9811,"RA_OF_ASC_NODE":275.0186,"ARG_OF_PERICENTER":159.4919,"MEAN_ANOMALY":200.6247,"EPHEMERIS_TYPE":0,"CLASSIFICATION_TYPE":"U","NORAD_CAT_ID":23405,"ELEMENT_SET_NO":999,"REV_AT_EPOCH":62144,"BSTAR":0.00010349938,"MEAN_MOTION_DOT":1.55e-6,"MEAN_MOTION_DDOT":0},{"OBJECT_NAME":"ARIANE 40+ R/B","OBJECT_ID":"1995-021B","EPOCH":"2026-04-15T10:20:39.850656","MEAN_MOTION":14.39798335,"ECCENTRICITY":0.00073598,"INCLINATION":98.444,"RA_OF_ASC_NODE":176.4045,"ARG_OF_PERICENTER":41.298,"MEAN_ANOMALY":329.9009,"EPHEMERIS_TYPE":0,"CLASSIFICATION_TYPE":"U","NORAD_CAT_ID":23561,"ELEMENT_SET_NO":999,"REV_AT_EPOCH":62453,"BSTAR":5.7452981e-5,"MEAN_MOTION_DOT":1.37e-6,"MEAN_MOTION_DDOT":0},{"OBJECT_NAME":"SL-16 R/B","OBJECT_ID":"1995-058B","EPOCH":"2026-04-15T09:07:12.628128","MEAN_MOTION":14.15502911,"ECCENTRICITY":0.00106161,"INCLINATION":71.0192,"RA_OF_ASC_NODE":103.2242,"ARG_OF_PERICENTER":58.3866,"MEAN_ANOMALY":301.8292,"EPHEMERIS_TYPE":0,"CLASSIFICATION_TYPE":"U","NORAD_CAT_ID":23705,"ELEMENT_SET_NO":999,"REV_AT_EPOCH":57304,"BSTAR":0.00016690007,"MEAN_MOTION_DOT":2.79e-6,"MEAN_MOTION_DDOT":0},{"OBJECT_NAME":"SL-16 R/B","OBJECT_ID":"1996-051B","EPOCH":"2026-04-15T10:13:54.421248","MEAN_MOTION":14.12425351,"ECCENTRICITY":0.00126448,"INCLINATION":70.7583,"RA_OF_ASC_NODE":97.4808,"ARG_OF_PERICENTER":85.6327,"MEAN_ANOMALY":274.6237,"EPHEMERIS_TYPE":0,"CLASSIFICATION_TYPE":"U","NORAD_CAT_ID":24298,"ELEMENT_SET_NO":999,"REV_AT_EPOCH":52683,"BSTAR":5.1684506e-5,"MEAN_MOTION_DOT":4.6e-7,"MEAN_MOTION_DDOT":0},{"OBJECT_NAME":"ORBVIEW 2 (SEASTAR)","OBJECT_ID":"1997-037A","EPOCH":"2026-04-15T08:37:52.396608","MEAN_MOTION":14.35520288,"ECCENTRICITY":0.00014747,"INCLINATION":98.8628,"RA_OF_ASC_NODE":270.6552,"ARG_OF_PERICENTER":339.0106,"MEAN_ANOMALY":21.1018,"EPHEMERIS_TYPE":0,"CLASSIFICATION_TYPE":"U","NORAD_CAT_ID":24883,"ELEMENT_SET_NO":999,"REV_AT_EPOCH":51373,"BSTAR":6.461173e-5,"MEAN_MOTION_DOT":1.39e-6,"MEAN_MOTION_DDOT":0},{"OBJECT_NAME":"SL-16 R/B","OBJECT_ID":"1998-043G","EPOCH":"2026-04-15T13:36:49.769280","MEAN_MOTION":14.26058174,"ECCENTRICITY":0.00087313,"INCLINATION":98.8314,"RA_OF_ASC_NODE":59.2065,"ARG_OF_PERICENTER":267.7171,"MEAN_ANOMALY":92.3009,"EPHEMERIS_TYPE":0,"CLASSIFICATION_TYPE":"U","NORAD_CAT_ID":25400,"ELEMENT_SET_NO":999,"REV_AT_EPOCH":44424,"BSTAR":2.330418e-5,"MEAN_MOTION_DOT":1.0e-7,"MEAN_MOTION_DDOT":0},{"OBJECT_NAME":"SL-16 R/B","OBJECT_ID":"1998-045B","EPOCH":"2026-04-15T08:56:58.617888","MEAN_MOTION":14.1619882,"ECCENTRICITY":0.00089078,"INCLINATION":71.0091,"RA_OF_ASC_NODE":104.4298,"ARG_OF_PERICENTER":316.2646,"MEAN_ANOMALY":43.7771,"EPHEMERIS_TYPE":0,"CLASSIFICATION_TYPE":"U","NORAD_CAT_ID":25407,"ELEMENT_SET_NO":999,"REV_AT_EPOCH":43229,"BSTAR":5.8455854e-5,"MEAN_MOTION_DOT":6.8e-7,"MEAN_MOTION_DDOT":0},{"OBJECT_NAME":"ISS (ZARYA)","OBJECT_ID":"1998-067A","EPOCH":"2026-04-15T13:17:52.692576","MEAN_MOTION":15.48924547,"ECCENTRICITY":0.00065833,"INCLINATION":51.6327,"RA_OF_ASC_NODE":250.0746,"ARG_OF_PERICENTER":315.773,"MEAN_ANOMALY":44.2732,"EPHEMERIS_TYPE":0,"CLASSIFICATION_TYPE":"U","NORAD_CAT_ID":25544,"ELEMENT_SET_NO":999,"REV_AT_EPOCH":56204,"BSTAR":0.00010353824,"MEAN_MOTION_DOT":5.244e-5,"MEAN_MOTION_DDOT":0},{"OBJECT_NAME":"CZ-4B R/B","OBJECT_ID":"1999-025C","EPOCH":"2026-04-15T13:46:13.764288","MEAN_MOTION":14.18272557,"ECCENTRICITY":0.00361686,"INCLINATION":98.6556,"RA_OF_ASC_NODE":148.9687,"ARG_OF_PERICENTER":237.8019,"MEAN_ANOMALY":242.5309,"EPHEMERIS_TYPE":0,"CLASSIFICATION_TYPE":"U","NORAD_CAT_ID":25732,"ELEMENT_SET_NO":999,"REV_AT_EPOCH":39339,"BSTAR":2.6307224e-5,"MEAN_MOTION_DOT":1.1e-7,"MEAN_MOTION_DDOT":0},{"OBJECT_NAME":"OKEAN-O","OBJECT_ID":"1999-039A","EPOCH":"2026-04-15T03:38:23.974368","MEAN_MOTION":14.80392097,"ECCENTRICITY":0.00011963,"INCLINATION":97.9371,"RA_OF_ASC_NODE":164.6588,"ARG_OF_PERICENTER":115.1282,"MEAN_ANOMALY":245.0055,"EPHEMERIS_TYPE":0,"CLASSIFICATION_TYPE":"U","NORAD_CAT_ID":25860,"ELEMENT_SET_NO":999,"REV_AT_EPOCH":43978,"BSTAR":4.9219798e-5,"MEAN_MOTION_DOT":3.24e-6,"MEAN_MOTION_DDOT":0},{"OBJECT_NAME":"SL-16 R/B","OBJECT_ID":"1999-039B","EPOCH":"2026-04-15T10:26:21.084864","MEAN_MOTION":14.81780838,"ECCENTRICITY":0.00158206,"INCLINATION":97.9894,"RA_OF_ASC_NODE":164.4623,"ARG_OF_PERICENTER":134.7181,"MEAN_ANOMALY":225.5323,"EPHEMERIS_TYPE":0,"CLASSIFICATION_TYPE":"U","NORAD_CAT_ID":25861,"ELEMENT_SET_NO":999,"REV_AT_EPOCH":44230,"BSTAR":3.6570572e-5,"MEAN_MOTION_DOT":2.35e-6,"MEAN_MOTION_DDOT":0},{"OBJECT_NAME":"DELTA 2 R/B","OBJECT_ID":"1999-041E","EPOCH":"2026-04-15T09:26:52.303488","MEAN_MOTION":14.11916721,"ECCENTRICITY":0.05025462,"INCLINATION":51.7596,"RA_OF_ASC_NODE":154.6521,"ARG_OF_PERICENTER":96.6645,"MEAN_ANOMALY":269.1722,"EPHEMERIS_TYPE":0,"CLASSIFICATION_TYPE":"U","NORAD_CAT_ID":25876,"ELEMENT_SET_NO":999,"REV_AT_EPOCH":36821,"BSTAR":8.2541035e-5,"MEAN_MOTION_DOT":2.62e-6,"MEAN_MOTION_DDOT":0}]
